{"fetched_at":"2026-07-17T06:38:02.036Z","source":"https://celestrak.org/NORAD/elements/gp.php?GROUP=stations&FORMAT=JSON","constellation":"tiangong","records":[{"OBJECT_NAME":"CSS (TIANHE)","OBJECT_ID":"2021-035A","EPOCH":"2026-07-16T21:09:17.609184","CLASSIFICATION_TYPE":"U","MEAN_MOTION":15.58131325,"ECCENTRICITY":0.0002268,"INCLINATION":41.4694,"RA_OF_ASC_NODE":141.6124,"ARG_OF_PERICENTER":301.63,"MEAN_ANOMALY":58.4316,"EPHEMERIS_TYPE":0,"NORAD_CAT_ID":48274,"ELEMENT_SET_NO":999,"REV_AT_EPOCH":29780,"BSTAR":0.000019704,"MEAN_MOTION_DOT":0.00001197,"MEAN_MOTION_DDOT":0}]}
